NORAD_CAT_ID,OBJECT_NAME,OBJECT_TYPE,EPOCH,MEAN_MOTION,ECCENTRICITY,INCLINATION,RA_OF_ASC_NODE,ARG_OF_PERICENTER,MEAN_ANOMALY,BSTAR,MEAN_MOTION_DOT,MEAN_MOTION_DDOT,TLE_LINE0,TLE_LINE1,TLE_LINE2,SEMIMAJOR_AXIS,PERIOD,APOGEE,PERIGEE,DECAYED
49178.0,STARLINK-3086,PAYLOAD,2022-10-22 21:29:10,14.98332511,0.0003625,70.0013,165.2915,240.9163,119.1633,0.00033413,3.896e-05,0.0,0 STARLINK-3086,1 49178U 21082BA  22295.89525627  .00003896  00000-0  33413-3 0  9999,2 49178  70.0013 165.2915 0003625 240.9163 119.1633 14.98332511 62326,6950.185,96.107,574.57,569.531,0.0
49178.0,STARLINK-3086,PAYLOAD,2022-10-23 08:42:06,14.98338694,0.0003536,70.0012,164.113,241.0921,118.9884,0.00056245,6.626e-05,0.0,0 STARLINK-3086,1 49178U 21082BA  22296.36257553  .00006626  00000-0  56245-3 0  9994,2 49178  70.0012 164.1130 0003536 241.0921 118.9884 14.98338694 62397,6950.166,96.106,574.489,569.573,0.0
49178.0,STARLINK-3086,PAYLOAD,2022-10-23 18:18:54,14.98342949,0.0003656,70.0011,163.1029,239.3948,120.6851,0.00072274,8.544e-05,0.0,0 STARLINK-3086,1 49178U 21082BA  22296.76313378  .00008544  00000-0  72274-3 0  9997,2 49178  70.0011 163.1029 0003656 239.3948 120.6851 14.98342949 62453,6950.153,96.106,574.559,569.477,0.0
49178.0,STARLINK-3086,PAYLOAD,2022-10-23 21:31:10,14.98342884,0.0003628999999999,70.001,162.7664,239.6666,120.4135,0.00068453,8.087e-05,0.0,0 STARLINK-3086,1 49178U 21082BA  22296.89665348  .00008087  00000-0  68453-3 0  9994,2 49178  70.0010 162.7664 0003629 239.6666 120.4135 14.98342884 62475,6950.153,96.106,574.54,569.496,0.0
49178.0,STARLINK-3086,PAYLOAD,2022-10-24 10:20:15,14.98339447,0.0003626,70.001,161.4197,239.4509,120.6293,0.00027237,3.159e-05,0.0,0 STARLINK-3086,1 49178U 21082BA  22297.43073115  .00003159  00000-0  27237-3 0  9990,2 49178  70.0010 161.4197 0003626 239.4509 120.6293 14.98339447 62550,6950.1640000000025,96.106,574.549,569.509,0.0
49178.0,STARLINK-3086,PAYLOAD,2022-10-24 16:44:48,14.98320667,0.0003645,70.0006,160.7471,238.912,121.1681,-0.00024687,-3.037e-05,0.0,0 STARLINK-3086,1 49178U 21082BA  22297.69777779 -.00003037  00000-0 -24687-3 0  9998,2 49178  70.0006 160.7471 0003645 238.9120 121.1681 14.98320667 62591,6950.222,96.108,574.62,569.553,0.0
49178.0,STARLINK-3086,PAYLOAD,2022-10-24 21:33:12,14.98315051,0.0003666,70.0008,160.2417,239.6639,120.4158,-0.00048681,-5.895e-05,0.0,0 STARLINK-3086,1 49178U 21082BA  22297.89805958 -.00005895  00000-0 -48681-3 0  9995,2 49178  70.0008 160.2417 0003666 239.6639 120.4158 14.98315051 62620,6950.239000000001,96.108,574.6519999999998,569.556,0.0
49178.0,STARLINK-3086,PAYLOAD,2022-10-25 08:46:09,14.98308916,0.0003681,70.0011,159.0636,240.4004,119.6788,-0.00025301,-3.109e-05,0.0,0 STARLINK-3086,1 49178U 21082BA  22298.36538775 -.00003109  00000-0 -25301-3 0  9998,2 49178  70.0011 159.0636 0003681 240.4004 119.6788 14.98308916 62694,6950.2580000000025,96.108,574.681,569.565,0.0
49178.0,STARLINK-3086,PAYLOAD,2022-10-25 19:59:06,14.98313613,0.0003675,70.0009,157.8854,239.8997,120.1798,-6.9071e-05,-9.17e-06,0.0,0 STARLINK-3086,1 49178U 21082BA  22298.83271432 -.00000917  00000-0 -69071-4 0  9991,2 49178  70.0009 157.8854 0003675 239.8997 120.1798 14.98313613 62761,6950.244000000002,96.108,574.663,569.554,0.0
49178.0,STARLINK-3086,PAYLOAD,2022-10-26 00:47:31,14.98317838,0.0003596,69.9997,157.3804,237.9444,122.1366,-0.00012009,-1.525e-05,0.0,0 STARLINK-3086,1 49178U 21082BA  22299.03299988 -.00001525  00000-0 -12009-3 0  9994,2 49178  69.9997 157.3804 0003596 237.9444 122.1366 14.98317838 62791,6950.231,96.108,574.595,569.596,0.0
49178.0,STARLINK-3086,PAYLOAD,2022-10-26 13:36:34,14.98332393,0.0003674,69.9994,156.034,240.793,119.2862,9.4572e-05,1.036e-05,0.0,0 STARLINK-3086,1 49178U 21082BA  22299.56706919  .00001036  00000-0  94572-4 0  9990,2 49178  69.9994 156.0340 0003674 240.7930 119.2862 14.98332393 62878,6950.185,96.107,574.604,569.497,0.0
49178.0,STARLINK-3086,PAYLOAD,2022-10-26 20:01:07,14.98325966,0.0003505,70.0,155.3609,239.7309,120.3503,0.00032373,3.771e-05,0.0,0 STARLINK-3086,1 49178U 21082BA  22299.83411148  .00003771  00000-0  32373-3 0  9995,2 49178  70.0000 155.3609 0003505 239.7309 120.3503 14.98325966 62918,6950.205,96.107,574.506,569.634,0.0
49178.0,STARLINK-3086,PAYLOAD,2022-10-27 12:02:27,14.9834065,0.0003588,70.0,153.6777,239.669,120.4114,0.0005536,6.521e-05,0.0,0 STARLINK-3086,1 49178U 21082BA  22300.50171141  .00006521  00000-0  55360-3 0  9995,2 49178  70.0000 153.6777 0003588 239.6690 120.4114 14.98340650 63016,6950.16,96.106,574.519,569.531,0.0
49178.0,STARLINK-3086,PAYLOAD,2022-10-27 13:38:35,14.98340678,0.0003548,69.9999,153.5094,240.3379,119.7427,0.00053557,6.305e-05,0.0,0 STARLINK-3086,1 49178U 21082BA  22300.56847168  .00006305  00000-0  53557-3 0  9996,2 49178  69.9999 153.5094 0003548 240.3379 119.7427 14.98340678 63029,6950.16,96.106,574.491,569.559,0.0
49178.0,STARLINK-3086,PAYLOAD,2022-10-27 20:03:07,14.983463699999998,0.0003634,69.9999,152.8358,238.8633,121.2169,0.00059729,7.044e-05,0.0,0 STARLINK-3086,1 49178U 21082BA  22300.83550784  .00007044  00000-0  59729-3 0  9999,2 49178  69.9999 152.8358 0003634 238.8633 121.2169 14.98346370 63065,6950.142,96.106,574.533,569.482,0.0
49178.0,STARLINK-3086,PAYLOAD,2022-10-27 23:15:23,14.98351425,0.0003592,70.0,152.4993,238.2674,121.8136,0.00052436,6.173e-05,0.0,0 STARLINK-3086,1 49178U 21082BA  22300.96902448  .00006173  00000-0  52436-3 0  9991,2 49178  70.0000 152.4993 0003592 238.2674 121.8136 14.98351425 63083,6950.127,96.106,574.488,569.495,0.0
49178.0,STARLINK-3086,PAYLOAD,2022-10-28 20:05:07,14.98351105,0.0003737,69.9999,150.3109,238.2768,121.8027,0.00016693,1.9e-05,0.0,0 STARLINK-3086,1 49178U 21082BA  22301.83689391  .00001900  00000-0  16693-3 0  9995,2 49178  69.9999 150.3109 0003737 238.2768 121.8027 14.98351105 63217,6950.128000000002,96.106,574.59,569.395,0.0
49178.0,STARLINK-3086,PAYLOAD,2022-10-29 08:54:11,14.98346339,0.0003603,70.0001,148.9642,237.4247,122.6564,6.9492e-05,7.37e-06,0.0,0 STARLINK-3086,1 49178U 21082BA  22302.37097084  .00000737  00000-0  69492-4 0  9990,2 49178  70.0001 148.9642 0003603 237.4247 122.6564 14.98346339 63290,6950.142,96.106,574.512,569.503,0.0
49178.0,STARLINK-3086,PAYLOAD,2022-10-29 20:07:08,14.98335241,0.0003506999999999,69.9999,147.7859,238.7081,121.3735,-0.00015712,-1.968e-05,0.0,0 STARLINK-3086,1 49178U 21082BA  22302.83829342 -.00001968  00000-0 -15712-3 0  9995,2 49178  69.9999 147.7859 0003507 238.7081 121.3735 14.98335241 63367,6950.177,96.107,574.479,569.604,0.0
49178.0,STARLINK-3086,PAYLOAD,2022-10-29 21:43:16,14.98335081,0.0003473,70.0,147.6172,238.6574,121.4245,-0.00014261,-1.795e-05,0.0,0 STARLINK-3086,1 49178U 21082BA  22302.90505333 -.00001795  00000-0 -14261-3 0  9990,2 49178  70.0000 147.6172 0003473 238.6574 121.4245 14.98335081 63378,6950.177,96.107,574.456,569.628,0.0
49178.0,STARLINK-3086,PAYLOAD,2022-10-30 10:32:21,14.98339696,0.0003549999999999,69.9989,146.2709,238.3085,121.7728,-2.4493e-05,-3.85e-06,0.0,0 STARLINK-3086,1 49178U 21082BA  22303.43913196 -.00000385  00000-0 -24493-4 0  9992,2 49178  69.9989 146.2709 0003550 238.3085 121.7728 14.98339696 63456,6950.163000000001,96.106,574.495,569.561,0.0
49178.0,STARLINK-3086,PAYLOAD,2022-10-30 21:45:17,14.98336563,0.0003446,69.9999,145.0926,233.8312,126.2529,3.9594e-05,3.79e-06,0.0,0 STARLINK-3086,1 49178U 21082BA  22303.90644969  .00000379  00000-0  39594-4 0  9992,2 49178  69.9999 145.0926 0003446 233.8312 126.2529 14.98336563 63529,6950.1730000000025,96.107,574.433,569.643,0.0
49178.0,STARLINK-3086,PAYLOAD,2022-10-31 12:10:29,14.98338431,0.0003483,69.9999,143.5779,238.5721,121.5098,0.00011926,1.331e-05,0.0,0 STARLINK-3086,1 49178U 21082BA  22304.50728695  .00001331  00000-0  11926-3 0  9995,2 49178  69.9999 143.5779 0003483 238.5721 121.5098 14.98338431 63610,6950.167,96.106,574.453,569.611,0.0
49178.0,STARLINK-3086,PAYLOAD,2022-10-31 18:35:01,14.983429999999998,0.000348,69.9986,142.9042,237.9488,122.1333,9.6784e-05,1.062e-05,0.0,0 STARLINK-3086,1 49178U 21082BA  22304.77432241  .00001062  00000-0  96784-4 0  9990,2 49178  69.9986 142.9042 0003480 237.9488 122.1333 14.98343000 63653,6950.153,96.106,574.436,569.599,0.0
49178.0,STARLINK-3086,PAYLOAD,2022-10-31 23:23:26,14.98334533,0.000352,69.9986,142.3993,237.6357,122.4462,5.693e-05,5.86e-06,0.0,0 STARLINK-3086,1 49178U 21082BA  22304.97460815  .00000586  00000-0  56930-4 0  9999,2 49178  69.9986 142.3993 0003520 237.6357 122.4462 14.98334533 63689,6950.179,96.107,574.49,569.597,0.0
49178.0,STARLINK-3086,PAYLOAD,2022-11-01 10:36:23,14.98324859,0.0003488,69.9986,141.2209,237.2539,122.8284,2.6495e-05,2.23e-06,0.0,0 STARLINK-3086,1 49178U 21082BA  22305.44193637  .00000223  00000-0  26495-4 0  9998,2 49178  69.9986 141.2209 0003488 237.2539 122.8284 14.98324859 63752,6950.209,96.107,574.498,569.65,0.0
49178.0,STARLINK-3086,PAYLOAD,2022-11-01 12:12:31,14.98321088,0.0003542,69.9988,141.0522,235.5005,124.582,8.6824e-05,9.43e-06,0.0,0 STARLINK-3086,1 49178U 21082BA  22305.50869709  .00000943  00000-0  86824-4 0  9996,2 49178  69.9988 141.0522 0003542 235.5005 124.5820 14.98321088 63767,6950.22,96.108,574.547,569.624,0.0
49178.0,STARLINK-3086,PAYLOAD,2022-11-01 18:37:04,14.98290942,0.000339,69.9995,140.3777,234.082,126.0025,0.00061402,7.234e-05,0.0,0 STARLINK-3086,1 49178U 21082BA  22305.77574899  .00007234  00000-0  61402-3 0  9992,2 49178  69.9995 140.3777 0003390 234.0820 126.0025 14.98290942 63802,6950.314,96.11,574.535,569.823,0.0
49178.0,STARLINK-3086,PAYLOAD,2022-11-01 23:25:27,14.98326423,0.0003498999999999,69.9986,139.8743,238.3066,121.7753,4.0881e-06,-4.4e-07,0.0,0 STARLINK-3086,1 49178U 21082BA  22305.97601592 -.00000044  00000-0  40881-5 0  9998,2 49178  69.9986 139.8743 0003499 238.3066 121.7753 14.98326423 63834,6950.204000000002,96.107,574.501,569.637,0.0
